OBJECT_NAME,OBJECT_ID,EPOCH,MEAN_MOTION,ECCENTRICITY,INCLINATION,RA_OF_ASC_NODE,ARG_OF_PERICENTER,MEAN_ANOMALY,EPHEMERIS_TYPE,CLASSIFICATION_TYPE,NORAD_CAT_ID,ELEMENT_SET_NO,REV_AT_EPOCH,BSTAR,MEAN_MOTION_DOT,MEAN_MOTION_DDOT
HYPERVIEW 1G (RS66S),2024-199AP,2026-05-21T06:28:24.710016,15.69183497,.00058333,97.2924,19.7626,38.7555,321.4124,0,U,61772,999,13044,.68840327E-3,.80446E-3,0
SITRO-AIS 47,2024-199AQ,2026-05-21T06:45:44.454528,15.56128412,.00078737,97.2947,16.7616,43.3383,316.8490,0,U,61773,999,13025,.48193308E-3,.33706E-3,0
SITRO-AIS 46,2024-199AR,2026-05-21T05:40:06.963744,15.57568701,.00078857,97.2921,17.0742,47.1871,313.0046,0,U,61774,999,13027,.49118613E-3,.36253E-3,0
2024-199AS,2024-199AS,2026-05-21T06:06:41.171616,15.43473556,.00155008,97.3019,13.4735,24.5399,335.6584,0,U,61775,999,13001,.27078126E-3,.12093E-3,0
SITRO-AIS 40,2024-199AT,2026-05-21T06:47:40.858656,15.57819713,.00076006,97.2930,17.1733,46.1720,314.0163,0,U,61776,999,13343,.4943934E-3,.36833E-3,0
2024-199AU,2024-199AU,2026-05-21T05:42:59.395680,15.44538943,.0015444,97.3017,13.6418,25.4220,334.7785,0,U,61777,999,13002,.14913456E-3,.6861E-4,0
SITRO-AIS 39,2024-199AV,2026-05-21T06:45:59.525280,15.55349356,.00080439,97.2932,16.4364,43.1434,317.0450,0,U,61778,999,13023,.4594574E-3,.31214E-3,0
ALTAIR (RS65S),2024-199AW,2026-05-21T06:50:00.101760,15.36473685,.00141701,97.3058,10.8191,49.1288,311.1182,0,U,61779,999,13298,.22927344E-3,.8105E-4,0
SITRO-AIS 37,2024-199AX,2026-05-21T05:45:01.852992,15.56314557,.00085681,97.2963,16.7253,43.2931,316.8996,0,U,61780,999,13024,.48274177E-3,.34006E-3,0
ASRTU-1 (AO-123),2024-199AY,2026-05-21T06:00:09.908352,15.35234781,.00153588,97.3030,10.1671,51.0042,309.2567,0,U,61781,999,12979,.16904641E-3,.5723E-4,0
SAMSAT-IONOSPHERE (RS75S),2024-199BB,2026-05-21T05:57:55.131264,15.55105221,.00094674,97.2984,16.5469,35.4751,324.7132,0,U,61784,999,13337,.45951374E-3,.30955E-3,0
RTU MIREA 1 (RS51S),2024-199BC,2026-05-21T06:19:29.604576,15.57997797,.0009132,97.2972,17.2674,33.6943,326.4892,0,U,61785,999,13027,.53300612E-3,.40022E-3,0
SITRO-AIS 38,2024-199BD,2026-05-21T05:42:19.633536,15.47273636,.00105194,97.2978,15.2106,41.7622,318.4429,0,U,61786,999,13014,.39597823E-3,.20154E-3,0
2024-199BE,2024-199BE,2026-05-21T06:50:42.815328,15.35948449,.00148136,97.3039,10.4674,49.2777,310.9751,0,U,61787,999,13296,.18883374E-3,.655E-4,0
SITRO-AIS 45,2024-199BF,2026-05-21T05:44:52.486368,15.55590918,.00080711,97.2929,16.4635,43.3532,316.8356,0,U,61788,999,13021,.46649965E-3,.31979E-3,0
SITRO-AIS 17,2024-199BG,2026-05-21T07:20:22.397856,14.97796503,.00070488,97.3250,342.5933,149.8762,210.2868,0,U,61789,999,12801,.20342361E-3,.2337E-4,0
SITRO-AIS 18,2024-199BH,2026-05-21T06:02:14.210304,14.97758560,.0006789,97.3255,342.4921,146.4667,213.6987,0,U,61790,999,12800,.17562125E-3,.2008E-4,0
STARLINK-32362,2024-202A,2026-05-21T02:42:21.035808,15.27578009,.00014432,43.0018,177.7506,277.9134,82.1554,0,U,61845,999,8712,.21221266E-4,.322E-5,0
STARLINK-32472,2024-202B,2026-05-21T02:05:33.228960,15.27569017,.00015862,43.0034,178.4265,273.8469,86.2202,0,U,61846,999,8652,.24363152E-4,.408E-5,0
STARLINK-32352,2024-202C,2026-05-21T02:34:56.923392,15.27580128,.00017471,43.0040,177.7141,289.4552,70.6111,0,U,61847,999,8654,.32338813E-4,.628E-5,0
STARLINK-32427,2024-202D,2026-05-20T19:06:22.100832,15.27576272,.00015808,43.0008,179.6721,279.6887,80.3786,0,U,61848,999,8648,.1529959E-4,.159E-5,0
STARLINK-32346,2024-202E,2026-05-20T19:11:56.336640,15.27576609,.00011104,43.0008,179.7019,267.2732,92.7993,0,U,61849,999,8648,.77769669E-4,.1878E-4,0
STARLINK-32330,2024-202F,2026-05-20T19:44:59.441280,15.27581998,.00012245,43.0047,190.2575,273.6535,86.4177,0,U,61850,999,8637,.27274175E-4,.488E-5,0
STARLINK-32379,2024-202G,2026-05-21T02:29:23.811648,15.27579167,.00014291,43.0017,177.6811,267.2188,92.8500,0,U,61851,999,8653,.44088915E-4,.951E-5,0
STARLINK-32433,2024-202H,2026-05-20T19:50:32.267904,15.27578746,.00013142,42.9977,190.2880,281.9357,78.1347,0,U,61852,999,8637,.26455712E-4,.466E-5,0
STARLINK-32394,2024-202J,2026-05-20T19:54:14.324544,15.27589928,.00016705,43.0009,190.3053,273.4800,86.5861,0,U,61853,999,8636,.54060057E-4,.1226E-4,0
STARLINK-32486,2024-202K,2026-05-20T19:59:47.384448,15.27577051,.00010244,43.0003,190.3380,276.1147,83.9588,0,U,61854,999,8637,-.13372326E-4,-.63E-5,0
STARLINK-32391,2024-202L,2026-05-20T10:40:25.125600,15.27568034,.00014618,43.0002,192.5840,289.3547,70.7146,0,U,61855,999,8630,.11612424E-3,.2934E-4,0
STARLINK-32483,2024-202M,2026-05-20T20:10:52.347360,15.27583320,.00022513,42.9944,190.3961,275.2030,84.8565,0,U,61856,999,8637,.34873142E-4,.697E-5,0
STARLINK-32451,2024-202N,2026-05-20T20:21:59.624928,15.27579785,.00011534,43.0026,190.4535,268.6915,91.3804,0,U,61857,999,8637,.409497E-6,-.251E-5,0
STARLINK-32556,2024-202P,2026-05-20T12:25:39.699840,15.27579572,.0001385,43.0022,192.2720,281.6294,78.4402,0,U,61858,999,8632,.25825387E-4,.449E-5,0
STARLINK-32466,2024-202Q,2026-05-21T04:16:28.672032,15.27577176,.00012689,43.0024,188.6270,268.9526,91.1180,0,U,61859,999,8642,-.19995637E-4,-.812E-5,0
STARLINK-32316,2024-202R,2026-05-20T20:02:20.400576,15.27576031,.00010569,43.0001,186.8907,281.9448,78.1285,0,U,61860,999,8640,-.13120603E-4,-.623E-5,0
STARLINK-32415,2024-202S,2026-05-20T20:36:47.730528,15.27576009,.00012906,43.0037,190.5332,271.8895,88.1809,0,U,61861,999,8636,.30731513E-4,.584E-5,0
STARLINK-32393,2024-202T,2026-05-20T20:31:15.024864,15.27580978,.00016861,43.0030,190.5048,295.0578,65.0099,0,U,61862,999,8637,-.14037423E-4,-.649E-5,0
STARLINK-32324,2024-202U,2026-05-20T05:06:20.224512,15.27576235,.00015167,43.0033,194.2844,270.1767,89.8911,0,U,61863,999,8626,.20271203E-4,.296E-5,0
STARLINK-32318,2024-202V,2026-05-20T09:58:03.458784,15.27578173,.00015459,43.0023,193.2226,267.9622,92.1053,0,U,61864,999,8630,.13884111E-4,.12E-5,0
STARLINK-32401,2024-202W,2026-05-20T14:46:03.835488,15.27590246,.00013929,42.9997,192.1405,268.2565,91.8127,0,U,61865,999,8633,.86900255E-4,.2131E-4,0
STARLINK-32588,2024-202X,2026-05-21T03:10:04.259136,15.27577953,.00015611,42.9928,189.1337,148.3214,211.7732,0,U,61866,999,8641,.37176259E-4,.761E-5,0
STARLINK-32569,2024-202Y,2026-05-21T03:24:52.683552,15.27576801,.00017333,42.9994,189.2125,268.3983,91.6671,0,U,61867,999,8641,.18531175E-4,.248E-5,0
2024-203A,2024-203A,2026-05-21T06:16:58.084896,15.29243353,.00130815,97.4200,211.6110,68.6112,291.6522,0,U,61869,999,8484,.36927599E-3,.10431E-3,0
2024-203B,2024-203B,2026-05-21T06:23:55.142016,15.29463198,.0012594,97.4180,211.6332,67.2476,293.0094,0,U,61870,999,8485,.36582163E-3,.10401E-3,0
2024-203C,2024-203C,2026-05-20T19:31:27.873120,15.24898549,.00136845,97.4245,210.2675,86.3708,273.9095,0,U,61871,999,8469,.29833468E-3,.737E-4,0
2024-203D,2024-203D,2026-05-21T06:41:23.576640,15.26636235,.00125592,97.4258,211.5575,81.1720,279.0941,0,U,61872,999,8481,.35175888E-3,.9169E-4,0
STARLINK-11402 [DTC],2024-204A,2026-05-20T00:32:32.621856,15.69711025,.00011088,53.1586,4.9789,83.7137,276.4007,0,U,61874,999,8870,.8250422E-5,.411E-5,0
STARLINK-11316 [DTC],2024-204B,2026-05-21T07:13:08.691456,15.69688903,.0001282,53.1580,357.9808,94.7718,265.3447,0,U,61875,999,8832,.24831841E-4,.2418E-4,0
STARLINK-11321 [DTC],2024-204D,2026-05-21T00:45:21.386592,15.69706857,.00009836,53.1597,359.8726,93.5505,266.5626,0,U,61877,999,8826,.3109E-8,-.588E-5,0
STARLINK-11314 [DTC],2024-204E,2026-05-20T23:06:36.485856,15.69706791,.0001262,53.1600,0.1547,86.8335,273.2828,0,U,61878,999,8826,-.379369E-6,-.635E-5,0
STARLINK-11324 [DTC],2024-204F,2026-05-20T22:59:32.994528,15.69702892,.00012953,53.1606,0.1219,82.9099,277.2066,0,U,61879,999,8826,.1435636E-5,-.415E-5,0
STARLINK-11328 [DTC],2024-204G,2026-05-20T22:52:28.964928,15.69715598,.00016058,53.1611,0.0871,88.0477,272.0725,0,U,61880,999,8826,-.19725592E-4,-.2979E-4,0
STARLINK-11329 [DTC],2024-204H,2026-05-20T22:45:25.092576,15.69702243,.00008964,53.1594,0.0528,84.5434,275.5686,0,U,61881,999,8826,-.2704636E-5,-.916E-5,0
STARLINK-11398 [DTC],2024-204J,2026-05-20T21:06:38.919168,15.69721477,.00006408,53.1578,0.3295,99.9662,260.1428,0,U,61882,999,8825,.2842574E-5,-.243E-5,0
STARLINK-11383 [DTC],2024-204K,2026-05-20T22:24:13.428864,15.69706719,.00007832,53.1580,359.9560,71.6731,288.4372,0,U,61883,999,8826,.705194E-6,-.503E-5,0
STARLINK-11359 [DTC],2024-204L,2026-05-21T00:02:58.352928,15.69703463,.0000874,53.1587,359.6737,82.3904,277.7213,0,U,61884,999,8827,.527683E-6,-.524E-5,0
STARLINK-11301 [DTC],2024-204M,2026-05-20T22:17:09.495168,15.69725463,.00009796,53.1601,359.9224,82.2408,277.8721,0,U,61885,999,8826,-.19951893E-4,-.3006E-4,0
STARLINK-11351 [DTC],2024-204N,2026-05-20T22:10:05.983968,15.69707095,.00013941,53.1597,359.8902,76.2118,283.9055,0,U,61886,999,8826,.2599917E-5,-.274E-5,0
STARLINK-32410,2024-204P,2026-05-21T06:47:47.613408,15.34386109,.00012705,53.1603,149.0639,85.9142,274.2006,0,U,61887,999,8622,.22506674E-4,.384E-5,0
STARLINK-32377,2024-204Q,2026-05-21T06:44:45.668832,15.34401389,.00011805,53.1601,149.0491,91.8898,268.2240,0,U,61888,999,8621,-.17988405E-3,-.6449E-4,0
STARLINK-32292,2024-204R,2026-05-21T05:29:08.818656,15.34389773,.00011431,53.1608,149.4331,84.7856,275.3277,0,U,61889,999,8621,.4100609E-5,-.238E-5,0
STARLINK-32501,2024-204S,2026-05-21T07:24:10.489536,15.34381351,.00011563,53.1616,149.2207,90.2464,269.8671,0,U,61890,999,8622,-.41963438E-4,-.1793E-4,0
STARLINK-32383,2024-204T,2026-05-21T07:15:03.488544,15.34389047,.00011522,53.1606,149.1780,83.2739,276.8395,0,U,61891,999,8622,.5626684E-5,-.186E-5,0
STARLINK-32239,2024-204U,2026-05-21T07:43:41.270880,15.30194450,.00010742,53.1589,150.0106,88.3890,271.7234,0,U,61892,999,8621,-.8644259E-5,-.615E-5,0
STARLINK-32489,2024-204V,2026-05-21T06:35:42.649152,15.34365685,.00014466,53.1605,149.0115,92.0747,268.0421,0,U,61893,999,8621,-.52934497E-4,-.2162E-4,0
2024-205A,2024-205A,2026-05-21T07:21:17.923680,15.11464597,.00150302,97.4130,212.1931,246.6316,113.3334,0,U,61894,999,8414,.26135218E-3,.4369E-4,0
